{
  "type": "FeatureCollection",
  "features": [
    {
      "type": "Feature",
      "properties": {
        "norad_id": 15362,
        "name": "NOVA 3",
        "group": "nnss",
        "lat": -80.90483396223756,
        "lon": 81.19246505522182,
        "alt_km": 1175.8415595839087,
        "timestamp": "2025-12-03T13:52:09.830039+00:00",
        "meta_object_name": "NOVA 3",
        "meta_object_id": "1984-110A",
        "meta_epoch": "2025-12-03T05:19:52.719744",
        "meta_mean_motion": 13.23042699,
        "meta_eccentricity": 0.00312659,
        "meta_inclination": 90.1225,
        "meta_ra_of_asc_node": 80.4226,
        "meta_arg_of_pericenter": 358.6795,
        "meta_mean_anomaly": 27.3287,
        "meta_ephemeris_type": 0,
        "meta_classification_type": "U",
        "meta_norad_cat_id": 15362,
        "meta_element_set_no": 999,
        "meta_rev_at_epoch": 98573,
        "meta_bstar": 8.8161257e-05,
        "meta_mean_motion_dot": 4.5e-07,
        "meta_mean_motion_ddot": 0,
        "tle_line1": "1 15362U 84110A   25337.22213796  .00000045  00000+0  88161-4 0  9999",
        "tle_line2": "2 15362  90.1225  80.4226 0031265 358.6795  27.3287 13.23042699985730"
      },
      "geometry": {
        "type": "Point",
        "coordinates": [
          81.19246505522182,
          -80.90483396223756
        ]
      }
    },
    {
      "type": "Feature",
      "properties": {
        "norad_id": 15935,
        "name": "OSCAR 30",
        "group": "nnss",
        "lat": -69.13295999308644,
        "lon": 100.12943111581662,
        "alt_km": 1258.3212268351735,
        "timestamp": "2025-12-03T13:52:09.830050+00:00",
        "meta_object_name": "OSCAR 30",
        "meta_object_id": "1985-066A",
        "meta_epoch": "2025-12-03T02:29:29.515776",
        "meta_mean_motion": 13.36075851,
        "meta_eccentricity": 0.0169334,
        "meta_inclination": 90.1646,
        "meta_ra_of_asc_node": 99.6897,
        "meta_arg_of_pericenter": 110.8002,
        "meta_mean_anomaly": 61.2446,
        "meta_ephemeris_type": 0,
        "meta_classification_type": "U",
        "meta_norad_cat_id": 15935,
        "meta_element_set_no": 999,
        "meta_rev_at_epoch": 96324,
        "meta_bstar": 0.00022932204,
        "meta_mean_motion_dot": 1.38e-06,
        "meta_mean_motion_ddot": 0,
        "tle_line1": "1 15935U 85066A   25337.10381384  .00000138  00000+0  22932-3 0  9998",
        "tle_line2": "2 15935  90.1646  99.6897 0169334 110.8002  61.2446 13.36075851963243"
      },
      "geometry": {
        "type": "Point",
        "coordinates": [
          100.12943111581662,
          -69.13295999308644
        ]
      }
    },
    {
      "type": "Feature",
      "properties": {
        "norad_id": 15936,
        "name": "OSCAR 24",
        "group": "nnss",
        "lat": 9.003967936323944,
        "lon": 92.11495072076787,
        "alt_km": 1161.0921165127957,
        "timestamp": "2025-12-03T13:52:09.830076+00:00",
        "meta_object_name": "OSCAR 24",
        "meta_object_id": "1985-066B",
        "meta_epoch": "2025-12-03T08:43:31.664352",
        "meta_mean_motion": 13.35933518,
        "meta_eccentricity": 0.01703712,
        "meta_inclination": 90.1786,
        "meta_ra_of_asc_node": 92.1395,
        "meta_arg_of_pericenter": 116.5141,
        "meta_mean_anomaly": 304.2883,
        "meta_ephemeris_type": 0,
        "meta_classification_type": "U",
        "meta_norad_cat_id": 15936,
        "meta_element_set_no": 999,
        "meta_rev_at_epoch": 96518,
        "meta_bstar": 0.00015687567,
        "meta_mean_motion_dot": 9.7e-07,
        "meta_mean_motion_ddot": 0,
        "tle_line1": "1 15936U 85066B   25337.36356093  .00000097  00000+0  15688-3 0  9990",
        "tle_line2": "2 15936  90.1786  92.1395 0170371 116.5141 304.2883 13.35933518965182"
      },
      "geometry": {
        "type": "Point",
        "coordinates": [
          92.11495072076787,
          9.003967936323944
        ]
      }
    },
    {
      "type": "Feature",
      "properties": {
        "norad_id": 17070,
        "name": "POLAR BEAR",
        "group": "nnss",
        "lat": -8.206080182637292,
        "lon": -175.91519030004312,
        "alt_km": 1011.3987877893987,
        "timestamp": "2025-12-03T13:52:09.830088+00:00",
        "meta_object_name": "POLAR BEAR",
        "meta_object_id": "1986-088A",
        "meta_epoch": "2025-12-03T02:17:48.033312",
        "meta_mean_motion": 13.75247704,
        "meta_eccentricity": 0.00402646,
        "meta_inclination": 89.6181,
        "meta_ra_of_asc_node": 184.1593,
        "meta_arg_of_pericenter": 147.3527,
        "meta_mean_anomaly": 338.9119,
        "meta_ephemeris_type": 0,
        "meta_classification_type": "U",
        "meta_norad_cat_id": 17070,
        "meta_element_set_no": 999,
        "meta_rev_at_epoch": 95846,
        "meta_bstar": 0.00013941547,
        "meta_mean_motion_dot": 1.46e-06,
        "meta_mean_motion_ddot": 0,
        "tle_line1": "1 17070U 86088A   25337.09569483  .00000146  00000+0  13942-3 0  9991",
        "tle_line2": "2 17070  89.6181 184.1593 0040264 147.3527 338.9119 13.75247704958462"
      },
      "geometry": {
        "type": "Point",
        "coordinates": [
          -175.91519030004312,
          -8.206080182637292
        ]
      }
    },
    {
      "type": "Feature",
      "properties": {
        "norad_id": 18361,
        "name": "OSCAR 27",
        "group": "nnss",
        "lat": 12.060250352518008,
        "lon": -100.99044132672131,
        "alt_km": 1081.6827640658812,
        "timestamp": "2025-12-03T13:52:09.830099+00:00",
        "meta_object_name": "OSCAR 27",
        "meta_object_id": "1987-080A",
        "meta_epoch": "2025-12-03T07:40:10.390944",
        "meta_mean_motion": 13.44903559,
        "meta_eccentricity": 0.01023542,
        "meta_inclination": 90.3742,
        "meta_ra_of_asc_node": 78.9199,
        "meta_arg_of_pericenter": 251.1517,
        "meta_mean_anomaly": 107.8509,
        "meta_ephemeris_type": 0,
        "meta_classification_type": "U",
        "meta_norad_cat_id": 18361,
        "meta_element_set_no": 999,
        "meta_rev_at_epoch": 87430,
        "meta_bstar": 0.00021414418,
        "meta_mean_motion_dot": 1.37e-06,
        "meta_mean_motion_ddot": 0,
        "tle_line1": "1 18361U 87080A   25337.31956471  .00000137  00000+0  21414-3 0  9993",
        "tle_line2": "2 18361  90.3742  78.9199 0102354 251.1517 107.8509 13.44903559874301"
      },
      "geometry": {
        "type": "Point",
        "coordinates": [
          -100.99044132672131,
          12.060250352518008
        ]
      }
    },
    {
      "type": "Feature",
      "properties": {
        "norad_id": 18362,
        "name": "OSCAR 29",
        "group": "nnss",
        "lat": -15.225443275311894,
        "lon": -100.71455489105436,
        "alt_km": 1081.56437588071,
        "timestamp": "2025-12-03T13:52:09.830109+00:00",
        "meta_object_name": "OSCAR 29",
        "meta_object_id": "1987-080B",
        "meta_epoch": "2025-12-03T07:49:55.668864",
        "meta_mean_motion": 13.44445634,
        "meta_eccentricity": 0.01036919,
        "meta_inclination": 90.3756,
        "meta_ra_of_asc_node": 79.3783,
        "meta_arg_of_pericenter": 274.5664,
        "meta_mean_anomaly": 144.9127,
        "meta_ephemeris_type": 0,
        "meta_classification_type": "U",
        "meta_norad_cat_id": 18362,
        "meta_element_set_no": 999,
        "meta_rev_at_epoch": 87383,
        "meta_bstar": 0.00017773913,
        "meta_mean_motion_dot": 1.14e-06,
        "meta_mean_motion_ddot": 0,
        "tle_line1": "1 18362U 87080B   25337.32633876  .00000114  00000+0  17774-3 0  9995",
        "tle_line2": "2 18362  90.3756  79.3783 0103691 274.5664 144.9127 13.44445634873838"
      },
      "geometry": {
        "type": "Point",
        "coordinates": [
          -100.71455489105436,
          -15.225443275311894
        ]
      }
    },
    {
      "type": "Feature",
      "properties": {
        "norad_id": 19070,
        "name": "OSCAR 23",
        "group": "nnss",
        "lat": 21.027912820204833,
        "lon": -163.7675956169749,
        "alt_km": 1055.8352782382572,
        "timestamp": "2025-12-03T13:52:09.830119+00:00",
        "meta_object_name": "OSCAR 23",
        "meta_object_id": "1988-033A",
        "meta_epoch": "2025-12-03T04:21:45.972576",
        "meta_mean_motion": 13.27784852,
        "meta_eccentricity": 0.01887353,
        "meta_inclination": 90.3224,
        "meta_ra_of_asc_node": 16.096,
        "meta_arg_of_pericenter": 206.5416,
        "meta_mean_anomaly": 221.5711,
        "meta_ephemeris_type": 0,
        "meta_classification_type": "U",
        "meta_norad_cat_id": 19070,
        "meta_element_set_no": 999,
        "meta_rev_at_epoch": 82126,
        "meta_bstar": 0.00021582768,
        "meta_mean_motion_dot": 1.15e-06,
        "meta_mean_motion_ddot": 0,
        "tle_line1": "1 19070U 88033A   25337.18178209  .00000115  00000+0  21583-3 0  9993",
        "tle_line2": "2 19070  90.3224  16.0960 0188735 206.5416 221.5711 13.27784852821262"
      },
      "geometry": {
        "type": "Point",
        "coordinates": [
          -163.7675956169749,
          21.027912820204833
        ]
      }
    }
  ]
}